[{"OBJECT_NAME":"ARCTICSAT 1 (RS74S)","OBJECT_ID":"2024-199AD","EPOCH":"2026-03-09T22:49:47.491968","MEAN_MOTION":15.65786404,"ECCENTRICITY":0.00034861,"INCLINATION":97.3086,"RA_OF_ASC_NODE":307.2864,"ARG_OF_PERICENTER":247.2949,"MEAN_ANOMALY":112.7943,"EPHEMERIS_TYPE":0,"CLASSIFICATION_TYPE":"U","NORAD_CAT_ID":61762,"ELEMENT_SET_NO":999,"REV_AT_EPOCH":12243,"BSTAR":0.0011044428,"MEAN_MOTION_DOT":0.00112957,"MEAN_MOTION_DDOT":0},{"OBJECT_NAME":"PEGASUS R\/B","OBJECT_ID":"2016-078J","EPOCH":"2026-03-09T11:17:36.981888","MEAN_MOTION":15.6531625,"ECCENTRICITY":0.00040638,"INCLINATION":34.9316,"RA_OF_ASC_NODE":130.3822,"ARG_OF_PERICENTER":356.4457,"MEAN_ANOMALY":3.624,"EPHEMERIS_TYPE":0,"CLASSIFICATION_TYPE":"U","NORAD_CAT_ID":41892,"ELEMENT_SET_NO":999,"REV_AT_EPOCH":51401,"BSTAR":0.00053938647,"MEAN_MOTION_DOT":0.00055892,"MEAN_MOTION_DDOT":0}]
